CTC1_L_00086001-01
1 10000U 25896PP  26075.70030093  .00000000  00000+0  00000-0 0  9992
2 10000  60.0000   0.0000 0000000   0.0000   0.0000 14.79785908    18
CTC1_L_00086001-02
1 10001U 24301BA  26075.70030093  .00000000  00000+0  00000-0 0  9993
2 10001  60.0000   0.0000 0000000   0.0000  90.0000 14.79785908    18
CTC1_L_00086001-03
1 10002U 24163PQ  26075.70030093  .00000000  00000+0  00000-0 0  9990
2 10002  60.0000   0.0000 0000000   0.0000 180.0000 14.79785908    19
CTC1_L_00086001-04
1 10003U 26699FW  26075.70030093  .00000000  00000+0  00000-0 0  9997
2 10003  60.0000   0.0000 0000000   0.0000 270.0000 14.79785908    10
CTC1_L_00086002-01
1 10004U 25316EO  26075.70030093  .00000000  00000+0  00000-0 0  9993
2 10004  60.0000  12.0000 0000000   0.0000  12.0000 14.79785908    18
CTC1_L_00086002-02
1 10005U 25427Z   26075.70030093  .00000000  00000+0  00000-0 0  9997
2 10005  60.0000  12.0000 0000000   0.0000 102.0000 14.79785908    19
CTC1_L_00086002-03
1 10006U 23677AC  26075.70030093  .00000000  00000+0  00000-0 0  9993
2 10006  60.0000  12.0000 0000000   0.0000 192.0000 14.79785908    19
CTC1_L_00086002-04
1 10007U 26181LH  26075.70030093  .00000000  00000+0  00000-0 0  9997
2 10007  60.0000  12.0000 0000000   0.0000 282.0000 14.79785908    10
CTC1_L_00086003-01
1 10008U 24608WT  26075.70030093  .00000000  00000+0  00000-0 0  9990
2 10008  60.0000  24.0000 0000000   0.0000  24.0000 14.79785908    18
CTC1_L_00086003-02
1 10009U 22333QP  26075.70030093  .00000000  00000+0  00000-0 0  9994
2 10009  60.0000  24.0000 0000000   0.0000 114.0000 14.79785908    19
CTC1_L_00086003-03
1 10010U 26949EU  26075.70030093  .00000000  00000+0  00000-0 0  9993
2 10010  60.0000  24.0000 0000000   0.0000 204.0000 14.79785908    11
CTC1_L_00086003-04
1 10011U 24632YD  26075.70030093  .00000000  00000+0  00000-0 0  9991
2 10011  60.0000  24.0000 0000000   0.0000 294.0000 14.79785908    11
CTC1_L_00086004-01
1 10012U 24354IR  26075.70030093  .00000000  00000+0  00000-0 0  9993
2 10012  60.0000  36.0000 0000000   0.0000  36.0000 14.79785908    19
CTC1_L_00086004-02
1 10013U 24945TS  26075.70030093  .00000000  00000+0  00000-0 0  9990
2 10013  60.0000  36.0000 0000000   0.0000 126.0000 14.79785908    10
CTC1_L_00086004-03
1 10014U 24131PM  26075.70030093  .00000000  00000+0  00000-0 0  9998
2 10014  60.0000  36.0000 0000000   0.0000 216.0000 14.79785908    11
CTC1_L_00086004-04
1 10015U 26190MZ  26075.70030093  .00000000  00000+0  00000-0 0  9996
2 10015  60.0000  36.0000 0000000   0.0000 306.0000 14.79785908    12
CTC1_L_00086005-01
1 10016U 25031UI  26075.70030093  .00000000  00000+0  00000-0 0  9990
2 10016  60.0000  48.0000 0000000   0.0000  48.0000 14.79785908    19
CTC1_L_00086005-02
1 10017U 25398CJ  26075.70030093  .00000000  00000+0  00000-0 0  9997
2 10017  60.0000  48.0000 0000000   0.0000 138.0000 14.79785908    10
CTC1_L_00086005-03
1 10018U 24311UP  26075.70030093  .00000000  00000+0  00000-0 0  9992
2 10018  60.0000  48.0000 0000000   0.0000 228.0000 14.79785908    11
CTC1_L_00086005-04
1 10019U 23103RR  26075.70030093  .00000000  00000+0  00000-0 0  9991
2 10019  60.0000  48.0000 0000000   0.0000 318.0000 14.79785908    12
CTC1_L_00086006-01
1 10020U 25476OJ  26075.70030093  .00000000  00000+0  00000-0 0  9998
2 10020  60.0000  60.0000 0000000   0.0000  60.0000 14.79785908    12
CTC1_L_00086006-02
1 10021U 25988SF  26075.70030093  .00000000  00000+0  00000-0 0  9997
2 10021  60.0000  60.0000 0000000   0.0000 150.0000 14.79785908    13
CTC1_L_00086006-03
1 10022U 26793CL  26075.70030093  .00000000  00000+0  00000-0 0  9993
2 10022  60.0000  60.0000 0000000   0.0000 240.0000 14.79785908    14
CTC1_L_00086006-04
1 10023U 24510LF  26075.70030093  .00000000  00000+0  00000-0 0  9999
2 10023  60.0000  60.0000 0000000   0.0000 330.0000 14.79785908    15
CTC1_L_00086007-01
1 10024U 22802AP  26075.70030093  .00000000  00000+0  00000-0 0  9992
2 10024  60.0000  72.0000 0000000   0.0000  72.0000 14.79785908    12
CTC1_L_00086007-02
1 10025U 26538JC  26075.70030093  .00000000  00000+0  00000-0 0  9993
2 10025  60.0000  72.0000 0000000   0.0000 162.0000 14.79785908    13
CTC1_L_00086007-03
1 10026U 23799AQ  26075.70030093  .00000000  00000+0  00000-0 0  9990
2 10026  60.0000  72.0000 0000000   0.0000 252.0000 14.79785908    14
CTC1_L_00086007-04
1 10027U 25874GR  26075.70030093  .00000000  00000+0  00000-0 0  9997
2 10027  60.0000  72.0000 0000000   0.0000 342.0000 14.79785908    15
CTC1_L_00086008-01
1 10028U 25989FZ  26075.70030093  .00000000  00000+0  00000-0 0  9995
2 10028  60.0000  84.0000 0000000   0.0000  84.0000 14.79785908    12
CTC1_L_00086008-02
1 10029U 25157AG  26075.70030093  .00000000  00000+0  00000-0 0  9993
2 10029  60.0000  84.0000 0000000   0.0000 174.0000 14.79785908    13
CTC1_L_00086008-03
1 10030U 26364XX  26075.70030093  .00000000  00000+0  00000-0 0  9996
2 10030  60.0000  84.0000 0000000   0.0000 264.0000 14.79785908    15
CTC1_L_00086008-04
1 10031U 24549ZM  26075.70030093  .00000000  00000+0  00000-0 0  9990
2 10031  60.0000  84.0000 0000000   0.0000 354.0000 14.79785908    16
CTC1_L_00086009-01
1 10032U 22265FV  26075.70030093  .00000000  00000+0  00000-0 0  9994
2 10032  60.0000  96.0000 0000000   0.0000  96.0000 14.79785908    13
CTC1_L_00086009-02
1 10033U 23958M   26075.70030093  .00000000  00000+0  00000-0 0  9995
2 10033  60.0000  96.0000 0000000   0.0000 186.0000 14.79785908    14
CTC1_L_00086009-03
1 10034U 25582XQ  26075.70030093  .00000000  00000+0  00000-0 0  9991
2 10034  60.0000  96.0000 0000000   0.0000 276.0000 14.79785908    15
CTC1_L_00086009-04
1 10035U 22831DE  26075.70030093  .00000000  00000+0  00000-0 0  9996
2 10035  60.0000  96.0000 0000000   0.0000   6.0000 14.79785908    17
CTC1_L_00086010-01
1 10036U 26283AN  26075.70030093  .00000000  00000+0  00000-0 0  9992
2 10036  60.0000 108.0000 0000000   0.0000 108.0000 14.79785908    15
CTC1_L_00086010-02
1 10037U 25630UW  26075.70030093  .00000000  00000+0  00000-0 0  9998
2 10037  60.0000 108.0000 0000000   0.0000 198.0000 14.79785908    15
CTC1_L_00086010-03
1 10038U 24883PN  26075.70030093  .00000000  00000+0  00000-0 0  9998
2 10038  60.0000 108.0000 0000000   0.0000 288.0000 14.79785908    16
CTC1_L_00086010-04
1 10039U 23070JS  26075.70030093  .00000000  00000+0  00000-0 0  9996
2 10039  60.0000 108.0000 0000000   0.0000  18.0000 14.79785908    18
CTC1_L_00086011-01
1 10040U 26342OO  26075.70030093  .00000000  00000+0  00000-0 0  9993
2 10040  60.0000 120.0000 0000000   0.0000 120.0000 14.79785908    18
CTC1_L_00086011-02
1 10041U 26467VW  26075.70030093  .00000000  00000+0  00000-0 0  9992
2 10041  60.0000 120.0000 0000000   0.0000 210.0000 14.79785908    19
CTC1_L_00086011-03
1 10042U 26312WN  26075.70030093  .00000000  00000+0  00000-0 0  9992
2 10042  60.0000 120.0000 0000000   0.0000 300.0000 14.79785908    10
CTC1_L_00086011-04
1 10043U 26141YT  26075.70030093  .00000000  00000+0  00000-0 0  9993
2 10043  60.0000 120.0000 0000000   0.0000  30.0000 14.79785908    11
CTC1_L_00086012-01
1 10044U 24501IP  26075.70030093  .00000000  00000+0  00000-0 0  9992
2 10044  60.0000 132.0000 0000000   0.0000 132.0000 14.79785908    18
CTC1_L_00086012-02
1 10045U 22838IG  26075.70030093  .00000000  00000+0  00000-0 0  9994
2 10045  60.0000 132.0000 0000000   0.0000 222.0000 14.79785908    19
CTC1_L_00086012-03
1 10046U 23026US  26075.70030093  .00000000  00000+0  00000-0 0  9995
2 10046  60.0000 132.0000 0000000   0.0000 312.0000 14.79785908    10
CTC1_L_00086012-04
1 10047U 25533IP  26075.70030093  .00000000  00000+0  00000-0 0  9991
2 10047  60.0000 132.0000 0000000   0.0000  42.0000 14.79785908    11
CTC1_L_00086013-01
1 10048U 22484MQ  26075.70030093  .00000000  00000+0  00000-0 0  9994
2 10048  60.0000 144.0000 0000000   0.0000 144.0000 14.79785908    18
CTC1_L_00086013-02
1 10049U 25538BK  26075.70030093  .00000000  00000+0  00000-0 0  9998
2 10049  60.0000 144.0000 0000000   0.0000 234.0000 14.79785908    19
CTC1_L_00086013-03
1 10050U 26154DT  26075.70030093  .00000000  00000+0  00000-0 0  9995
2 10050  60.0000 144.0000 0000000   0.0000 324.0000 14.79785908    11
CTC1_L_00086013-04
1 10051U 23605MU  26075.70030093  .00000000  00000+0  00000-0 0  9994
2 10051  60.0000 144.0000 0000000   0.0000  54.0000 14.79785908    12
CTC1_L_00086014-01
1 10052U 22584PA  26075.70030093  .00000000  00000+0  00000-0 0  9990
2 10052  60.0000 156.0000 0000000   0.0000 156.0000 14.79785908    19
CTC1_L_00086014-02
1 10053U 24318EM  26075.70030093  .00000000  00000+0  00000-0 0  9998
2 10053  60.0000 156.0000 0000000   0.0000 246.0000 14.79785908    10
CTC1_L_00086014-03
1 10054U 26803XL  26075.70030093  .00000000  00000+0  00000-0 0  9990
2 10054  60.0000 156.0000 0000000   0.0000 336.0000 14.79785908    11
CTC1_L_00086014-04
1 10055U 23637GV  26075.70030093  .00000000  00000+0  00000-0 0  9993
2 10055  60.0000 156.0000 0000000   0.0000  66.0000 14.79785908    12
CTC1_L_00086015-01
1 10056U 22256HS  26075.70030093  .00000000  00000+0  00000-0 0  9990
2 10056  60.0000 168.0000 0000000   0.0000 168.0000 14.79785908    19
CTC1_L_00086015-02
1 10057U 24179Z   26075.70030093  .00000000  00000+0  00000-0 0  9997
2 10057  60.0000 168.0000 0000000   0.0000 258.0000 14.79785908    10
CTC1_L_00086015-03
1 10058U 24140CW  26075.70030093  .00000000  00000+0  00000-0 0  9996
2 10058  60.0000 168.0000 0000000   0.0000 348.0000 14.79785908    11
CTC1_L_00086015-04
1 10059U 23957IX  26075.70030093  .00000000  00000+0  00000-0 0  9992
2 10059  60.0000 168.0000 0000000   0.0000  78.0000 14.79785908    12
CTC1_L_00086016-01
1 10060U 26809ZP  26075.70030093  .00000000  00000+0  00000-0 0  9993
2 10060  60.0000 180.0000 0000000   0.0000 180.0000 14.79785908    12
CTC1_L_00086016-02
1 10061U 26644SM  26075.70030093  .00000000  00000+0  00000-0 0  9991
2 10061  60.0000 180.0000 0000000   0.0000 270.0000 14.79785908    13
